ONEWEB-0607             
1 54671U 22166AF  25065.24616435  .00000131  00000+0  28515-3 0  9997
2 54671  87.9347 337.2488 0001719  84.8974 275.2356 13.21825125110187
ONEWEB-0608             
1 54672U 22166AG  25065.25247330  .00000118  00000+0  25338-3 0  9998
2 54672  87.9328 337.2558 0001425  90.9931 269.1366 13.21825359110193
ONEWEB-0610             
1 54673U 22166AH  25065.30924374  .00000174  00000+0  39063-3 0  9997
2 54673  87.9348 337.2550 0001394  92.2779 267.8514 13.21825496109648
ONEWEB-0611             
1 54674U 22166AJ  25065.30293914  .00000111  00000+0  23774-3 0  9990
2 54674  87.9348 337.2537 0002063  75.2967 284.8395 13.21825692109631
ONEWEB-0612             
1 54675U 22166AK  25065.31554910  .00000153  00000+0  33862-3 0  9993
2 54675  87.9346 337.2304 0001627  84.4359 275.6960 13.21825315109621
ONEWEB-0615             
1 54676U 22166AL  25065.29663187  .00000063  00000+0  12118-3 0  9999
2 54676  87.9347 337.2599 0001774  87.3287 272.8050 13.21825684109633
ONEWEB-0655             
1 54677U 22166AM  25065.26982430 -.00000010  00000+0 -55137-4 0  9995
2 54677  87.9347 337.2690 0001948  89.5743 270.5614 13.21823969109624
ONEWEB-0659             
1 54678U 22166AN  25065.28716595  .00000037  00000+0  57490-4 0  9996
2 54678  87.9346 337.2683 0001780  73.5130 286.6199 13.21825447109712
